GLOBALSTAR M069         
1 31573U 07020C   26189.25777854 -.00000065  00000+0  25388-3 0  9999
2 31573  51.9998 192.4877 0001845 194.4416 178.1322 12.23472152881388
GLOBALSTAR M072         
1 31574U 07020D   26189.38225741 -.00000086  00000+0 -25576-4 0  9991
2 31574  51.9943  43.8189 0001618  21.8370 149.9387 11.91658614877503
GLOBALSTAR M066         
1 32265U 07048C   26189.60714105 -.00000048  00000+0  39531-3 0  9993
2 32265  51.9609 356.4225 0005658  88.9731 347.1038 12.30388909862866
GLOBALSTAR M079         
1 37188U 10054A   26189.38178343 -.00000110  00000+0 -34705-4 0  9996
2 37188  52.0048  44.1510 0001081  65.9364 105.2202 12.62266419725225
GLOBALSTAR M074         
1 37189U 10054B   26189.32890760 -.00000104  00000+0 -14284-5 0  9999
2 37189  52.0029  43.5739 0000856  83.0604  87.7850 12.62261983725828
GLOBALSTAR M076         
1 37190U 10054C   26189.35540837 -.00000103  00000+0  56531-5 0  9990
2 37190  52.0039  43.6983 0001075  79.1365  92.0922 12.62262116725544
GLOBALSTAR M077         
1 37191U 10054D   26189.29407803 -.00000076  00000+0  35624-4 0  9997
2 37191  51.9946 125.7223 0002380 212.0226 316.1933 11.67547872723609
GLOBALSTAR M075         
1 37192U 10054E   26189.20998132 -.00000099  00000+0  25160-4 0  9998
2 37192  51.9947  86.1831 0000635  53.9411 116.4907 12.62267711724593
GLOBALSTAR M073         
1 37193U 10054F   26189.41319812 -.00000094  00000+0  55254-4 0  9996
2 37193  52.0077 359.6810 0001101  87.1948 285.5062 12.62266915726618
GLOBALSTAR M083         
1 37739U 11033A   26189.35150491 -.00000092  00000+0  66186-4 0  9993
2 37739  51.9875 308.0692 0000880  98.4794 295.0572 12.62263904695624
GLOBALSTAR M088         
1 37740U 11033B   26189.32092428 -.00000086  00000+0  98130-4 0  9994
2 37740  52.0184 214.6415 0000205 156.7359 216.3828 12.62269311691165
GLOBALSTAR M091         
1 37741U 11033C   26189.44666156 -.00000088  00000+0  86914-4 0  9992
2 37741  51.9970 177.1916 0000256   6.8774 158.5900 12.62264158691968
GLOBALSTAR M085         
1 37742U 11033D   26189.18982573 -.00000087  00000+0  91877-4 0  9991
2 37742  52.0117 129.2835 0000618  26.4956 111.3385 12.62264293692442
GLOBALSTAR M081         
1 37743U 11033E   26189.21666321 -.00000095  00000+0  47298-4 0  9993
2 37743  51.9947 131.6141 0000515  45.8634  93.7786 12.62265338692598
GLOBALSTAR M089         
1 37744U 11033F   26189.42142664 -.00000105  00000+0 -55435-5 0  9992
2 37744  51.9932  85.1460 0000634  82.8829  88.7338 12.62267556693467
GLOBALSTAR M084         
1 38040U 11080A   26189.32145454 -.00000093  00000+0  60552-4 0  9993
2 38040  52.0030 312.9432 0000978 119.9561 257.0612 12.62267839671437
GLOBALSTAR M080         
1 38041U 11080B   26189.37568341 -.00000101  00000+0  15974-4 0  9991
2 38041  51.9971 314.4858 0000382 313.7000  79.8485 12.62259863671560
GLOBALSTAR M082         
1 38042U 11080C   26189.54509226 -.00000091  00000+0  68655-4 0  9990
2 38042  52.0072 269.4921 0000284 108.9973 264.5161 12.62263998672298
GLOBALSTAR M092         
1 38043U 11080D   26189.52444863 -.00000089  00000+0  80886-4 0  9991
2 38043  52.0102 359.9513 0000834  94.0026 304.9351 12.62267577670745
GLOBALSTAR M090         
1 38044U 11080E   26189.49303891 -.00000089  00000+0  83605-4 0  9995
2 38044  52.0118 263.6136 0000475 107.3452 268.2543 12.62252976672404
GLOBALSTAR M086         
1 38045U 11080F   26189.51388174 -.00000091  00000+0  71057-4 0  9997
2 38045  51.9891 263.4440 0001629 101.9067 271.6031 12.62287714672353
GLOBALSTAR M097         
1 39072U 13005A   26189.22587323 -.00000087  00000+0  92192-4 0  9990
2 39072  52.0018 179.2919 0000256  36.8234 323.2651 12.62271390619568
GLOBALSTAR M093         
1 39073U 13005B   26189.35744497 -.00000084  00000+0  11303-3 0  9993
2 39073  52.0079 172.2458 0000484  35.6111 324.4788 12.62266257619538
GLOBALSTAR M094         
1 39074U 13005C   26188.88218543 -.00000107  00000+0 -19810-4 0  9998
2 39074  51.9961  87.7892 0000893  49.5240 310.5704 12.62268482621089
GLOBALSTAR M096         
1 39075U 13005D   26189.21245548 -.00000093  00000+0  61011-4 0  9995
2 39075  52.0058 135.6005 0000576  28.4831 331.6068 12.62265644620047
GLOBALSTAR M078         
1 39076U 13005E   26189.34392781 -.00000090  00000+0  76485-4 0  9990
2 39076  51.9845 219.1832 0000673 316.7501  43.3313 12.62260046618689
GLOBALSTAR M095         
1 39077U 13005F   26189.44980741 -.00000086  00000+0  99950-4 0  9998
2 39077  52.0054 216.4947 0000262   2.5818 357.5050 12.62264011618556
GLOBALSTAR M087         
1 52888U 22064A   26189.46294869 -.00000101  00000+0  14321-4 0  9996
2 52888  52.0014 357.6798 0000947  75.9175 284.1797 12.62269304193820
